{
  "type": "FeatureCollection",
  "features": [
    {
      "type": "Feature",
      "properties": {
        "norad_id": 32376,
        "name": "COSMO-SKYMED 2",
        "group": "resource",
        "lat": -46.71079308914725,
        "lon": -21.256945803872203,
        "alt_km": 630.155546563501,
        "timestamp": "2025-12-11T20:41:14.743849+00:00",
        "meta_object_name": "COSMO-SKYMED 2",
        "meta_object_id": "2007-059A",
        "meta_epoch": "2025-12-11T14:48:17.248320",
        "meta_mean_motion": 14.82164189,
        "meta_eccentricity": 0.00015144,
        "meta_inclination": 97.8811,
        "meta_ra_of_asc_node": 166.9576,
        "meta_arg_of_pericenter": 84.9603,
        "meta_mean_anomaly": 275.1783,
        "meta_ephemeris_type": 0,
        "meta_classification_type": "U",
        "meta_norad_cat_id": 32376,
        "meta_element_set_no": 999,
        "meta_rev_at_epoch": 97421,
        "meta_bstar": 0.00012360469,
        "meta_mean_motion_dot": 9.32e-06,
        "meta_mean_motion_ddot": 0,
        "tle_line1": "1 32376U 07059A   25345.61686630  .00000932  00000+0  12360-3 0  9995",
        "tle_line2": "2 32376  97.8811 166.9576 0001514  84.9603 275.1783 14.82164189974218"
      },
      "geometry": {
        "type": "Point",
        "coordinates": [
          -21.256945803872203,
          -46.71079308914725
        ]
      }
    },
    {
      "type": "Feature",
      "properties": {
        "norad_id": 32382,
        "name": "RADARSAT-2",
        "group": "resource",
        "lat": -19.182221010028847,
        "lon": -6.524726454500932,
        "alt_km": 797.0469407638957,
        "timestamp": "2025-12-11T20:41:14.743860+00:00",
        "meta_object_name": "RADARSAT-2",
        "meta_object_id": "2007-061A",
        "meta_epoch": "2025-12-11T14:03:38.763648",
        "meta_mean_motion": 14.29980989,
        "meta_eccentricity": 0.00011149,
        "meta_inclination": 98.5799,
        "meta_ra_of_asc_node": 350.1925,
        "meta_arg_of_pericenter": 85.4879,
        "meta_mean_anomaly": 274.6431,
        "meta_ephemeris_type": 0,
        "meta_classification_type": "U",
        "meta_norad_cat_id": 32382,
        "meta_element_set_no": 999,
        "meta_rev_at_epoch": 93914,
        "meta_bstar": 3.802577e-06,
        "meta_mean_motion_dot": -3.4e-07,
        "meta_mean_motion_ddot": 0,
        "tle_line1": "1 32382U 07061A   25345.58586532 -.00000034  00000+0  38026-5 0  9994",
        "tle_line2": "2 32382  98.5799 350.1925 0001114  85.4879 274.6431 14.29980989939142"
      },
      "geometry": {
        "type": "Point",
        "coordinates": [
          -6.524726454500932,
          -19.182221010028847
        ]
      }
    },
    {
      "type": "Feature",
      "properties": {
        "norad_id": 32783,
        "name": "CARTOSAT-2A",
        "group": "resource",
        "lat": 16.83148954633858,
        "lon": 33.33827037531099,
        "alt_km": 624.9630643847522,
        "timestamp": "2025-12-11T20:41:14.743870+00:00",
        "meta_object_name": "CARTOSAT-2A",
        "meta_object_id": "2008-021A",
        "meta_epoch": "2025-12-11T14:06:57.260736",
        "meta_mean_motion": 14.78937205,
        "meta_eccentricity": 0.00120069,
        "meta_inclination": 97.7928,
        "meta_ra_of_asc_node": 35.4474,
        "meta_arg_of_pericenter": 8.6468,
        "meta_mean_anomaly": 351.4948,
        "meta_ephemeris_type": 0,
        "meta_classification_type": "U",
        "meta_norad_cat_id": 32783,
        "meta_element_set_no": 999,
        "meta_rev_at_epoch": 95107,
        "meta_bstar": 0.00035402,
        "meta_mean_motion_dot": 2.564e-05,
        "meta_mean_motion_ddot": 0,
        "tle_line1": "1 32783U 08021A   25345.58816274  .00002564  00000+0  35402-3 0  9997",
        "tle_line2": "2 32783  97.7928  35.4474 0012006   8.6468 351.4948 14.78937205951077"
      },
      "geometry": {
        "type": "Point",
        "coordinates": [
          33.33827037531099,
          16.83148954633858
        ]
      }
    },
    {
      "type": "Feature",
      "properties": {
        "norad_id": 33320,
        "name": "HUANJING 1A (HJ-1A)",
        "group": "resource",
        "lat": -47.87152319616115,
        "lon": 145.64606231595795,
        "alt_km": 639.4514214162127,
        "timestamp": "2025-12-11T20:41:14.743880+00:00",
        "meta_object_name": "HUANJING 1A (HJ-1A)",
        "meta_object_id": "2008-041A",
        "meta_epoch": "2025-12-11T14:48:17.136864",
        "meta_mean_motion": 14.8338834,
        "meta_eccentricity": 0.00203104,
        "meta_inclination": 97.6547,
        "meta_ra_of_asc_node": 333.9625,
        "meta_arg_of_pericenter": 38.13,
        "meta_mean_anomaly": 322.1347,
        "meta_ephemeris_type": 0,
        "meta_classification_type": "U",
        "meta_norad_cat_id": 33320,
        "meta_element_set_no": 999,
        "meta_rev_at_epoch": 93059,
        "meta_bstar": 0.00024308301,
        "meta_mean_motion_dot": 1.95e-05,
        "meta_mean_motion_ddot": 0,
        "tle_line1": "1 33320U 08041A   25345.61686501  .00001950  00000+0  24308-3 0  9990",
        "tle_line2": "2 33320  97.6547 333.9625 0020310  38.1300 322.1347 14.83388340930593"
      },
      "geometry": {
        "type": "Point",
        "coordinates": [
          145.64606231595795,
          -47.87152319616115
        ]
      }
    },
    {
      "type": "Feature",
      "properties": {
        "norad_id": 33321,
        "name": "HUANJING 1B (HJ-1B)",
        "group": "resource",
        "lat": 82.22665383066779,
        "lon": -122.5726827682826,
        "alt_km": 586.9192063273586,
        "timestamp": "2025-12-11T20:41:14.743890+00:00",
        "meta_object_name": "HUANJING 1B (HJ-1B)",
        "meta_object_id": "2008-041B",
        "meta_epoch": "2025-12-11T15:25:13.879200",
        "meta_mean_motion": 14.82813317,
        "meta_eccentricity": 0.00382205,
        "meta_inclination": 97.6404,
        "meta_ra_of_asc_node": 337.6863,
        "meta_arg_of_pericenter": 79.1227,
        "meta_mean_anomaly": 281.4285,
        "meta_ephemeris_type": 0,
        "meta_classification_type": "U",
        "meta_norad_cat_id": 33321,
        "meta_element_set_no": 999,
        "meta_rev_at_epoch": 93061,
        "meta_bstar": 9.7188399e-05,
        "meta_mean_motion_dot": 7.45e-06,
        "meta_mean_motion_ddot": 0,
        "tle_line1": "1 33321U 08041B   25345.64252175  .00000745  00000+0  97188-4 0  9998",
        "tle_line2": "2 33321  97.6404 337.6863 0038220  79.1227 281.4285 14.82813317930610"
      },
      "geometry": {
        "type": "Point",
        "coordinates": [
          -122.5726827682826,
          82.22665383066779
        ]
      }
    },
    {
      "type": "Feature",
      "properties": {
        "norad_id": 33331,
        "name": "GEOEYE 1",
        "group": "resource",
        "lat": 45.04773466776241,
        "lon": -114.61865313064602,
        "alt_km": 675.4293794859486,
        "timestamp": "2025-12-11T20:41:14.743901+00:00",
        "meta_object_name": "GEOEYE 1",
        "meta_object_id": "2008-042A",
        "meta_epoch": "2025-12-11T15:09:28.686528",
        "meta_mean_motion": 14.64810393,
        "meta_eccentricity": 0.00027387,
        "meta_inclination": 98.1254,
        "meta_ra_of_asc_node": 56.9262,
        "meta_arg_of_pericenter": 281.3181,
        "meta_mean_anomaly": 78.7715,
        "meta_ephemeris_type": 0,
        "meta_classification_type": "U",
        "meta_norad_cat_id": 33331,
        "meta_element_set_no": 999,
        "meta_rev_at_epoch": 92269,
        "meta_bstar": 0.00019285508,
        "meta_mean_motion_dot": 9.81e-06,
        "meta_mean_motion_ddot": 0,
        "tle_line1": "1 33331U 08042A   25345.63158202  .00000981  00000+0  19286-3 0  9999",
        "tle_line2": "2 33331  98.1254  56.9262 0002738 281.3181  78.7715 14.64810393922690"
      },
      "geometry": {
        "type": "Point",
        "coordinates": [
          -114.61865313064602,
          45.04773466776241
        ]
      }
    },
    {
      "type": "Feature",
      "properties": {
        "norad_id": 33396,
        "name": "THEOS",
        "group": "resource",
        "lat": 47.042737028943186,
        "lon": -126.68467989581774,
        "alt_km": 820.1721544463744,
        "timestamp": "2025-12-11T20:41:14.743912+00:00",
        "meta_object_name": "THEOS",
        "meta_object_id": "2008-049A",
        "meta_epoch": "2025-12-11T14:59:39.334848",
        "meta_mean_motion": 14.20097143,
        "meta_eccentricity": 0.00011545,
        "meta_inclination": 98.5864,
        "meta_ra_of_asc_node": 43.7467,
        "meta_arg_of_pericenter": 95.4393,
        "meta_mean_anomaly": 264.6915,
        "meta_ephemeris_type": 0,
        "meta_classification_type": "U",
        "meta_norad_cat_id": 33396,
        "meta_element_set_no": 999,
        "meta_rev_at_epoch": 89134,
        "meta_bstar": 0.00016975943,
        "meta_mean_motion_dot": 3.19e-06,
        "meta_mean_motion_ddot": 0,
        "tle_line1": "1 33396U 08049A   25345.62476082  .00000319  00000+0  16976-3 0  9993",
        "tle_line2": "2 33396  98.5864  43.7467 0001154  95.4393 264.6915 14.20097143891340"
      },
      "geometry": {
        "type": "Point",
        "coordinates": [
          -126.68467989581774,
          47.042737028943186
        ]
      }
    }
  ]
}